ONEWEB-0451             
1 51643U 22012X   24081.52763734 -.00003873  00000+0 -10009-1 0  9991
2 51643  87.9249 168.5299 0002086  94.4749 265.6620 13.17668782107287
ONEWEB-0452             
1 51644U 22012Y   24081.52605768  .00000039  00000+0  67849-4 0  9990
2 51644  87.9256 168.5649 0002255  96.9486 263.1902 13.17646981107292
ONEWEB-0455             
1 51645U 22012Z   24081.54952841  .00000472  00000+0  20256-3 0  9991
2 51645  87.5340 142.6522 0014735 271.3472  88.6030 14.22759698111122
ONEWEB-0456             
1 51646U 22012AA  24081.01966118  .00000657  00000+0  18457-2 0  9990
2 51646  87.8973 198.8086 0001381 110.2676 249.8600 13.10369005103485
ONEWEB-0457             
1 51647U 22012AB  24080.84420654  .00000478  00000+0  13334-2 0  9991
2 51647  87.8986 198.8582 0002145 104.9824 255.1541 13.10376529102173
ONEWEB-0458             
1 51648U 22012AC  24081.55254849  .00000529  00000+0  14802-2 0  9990
2 51648  87.8986 198.7329 0001800  99.3488 260.7843 13.10371401103523
ONEWEB-0461             
1 51649U 22012AD  24081.47226274  .00000001  00000+0 -31191-4 0  9991
2 51649  87.9251 168.5479 0002102 107.4300 252.7061 13.17649373107497
ONEWEB-0463             
1 51650U 22012AE  24081.53081976  .00000140  00000+0  32711-3 0  9999
2 51650  87.9255 168.5790 0002073 104.7247 255.4115 13.17650611107291
ONEWEB-0464             
1 51651U 22012AF  24081.01479243  .00000530  00000+0  14832-2 0  9997
2 51651  87.8988 198.8275 0001286 101.2524 258.8748 13.10370790103478
ONEWEB-0468             
1 51652U 22012AG  24081.55579184  .00000357  00000+0  98738-3 0  9997
2 51652  87.8985 198.7140 0001680 104.9965 255.1349 13.10370088103515
ONEWEB-0473             
1 51653U 22012AH  24081.08303274  .00000785  00000+0  22133-2 0  9991
2 51653  87.8990 198.8106 0001705 102.3292 257.8026 13.10373050103465
ONEWEB-0474             
1 51654U 22012AJ  24081.22764667  .00002082  00000+0  59276-2 0  9995
2 51654  87.8986 198.7869 0001366  99.7034 260.4248 13.10360945103467
ONEWEB-0475             
1 51655U 22012AK  24081.46593174  .00000076  00000+0  16224-3 0  9993
2 51655  87.9256 168.5710 0001771  90.6550 269.4784 13.17651541107293
ONEWEB-0490             
1 54113U 22138A   24081.07137596 -.00000874  00000+0 -22160-2 0  9996
2 54113  87.9101 107.8205 0001716  92.1946 267.9384 13.19727451 69791
ONEWEB-0492             
1 54114U 22138B   24080.56592732  .00000064  00000+0  12786-3 0  9990
2 54114  87.9110 107.9201 0001649  90.3624 269.7698 13.19726725 69732
ONEWEB-0495             
1 54115U 22138C   24081.52943583  .00000032  00000+0  47936-4 0  9993
2 54115  87.9106 107.7391 0001739  80.6024 279.5305 13.19724322 69849
ONEWEB-0497             
1 54116U 22138D   24080.63227459  .00000062  00000+0  12195-3 0  9993
2 54116  87.9103 107.9103 0001805  90.8802 269.2537 13.19726467 68845
ONEWEB-0499             
1 54117U 22138E   24080.61491071  .00000044  00000+0  77995-4 0  9995
2 54117  87.9107 107.9109 0002360  86.3412 273.7990 13.19723541 68854
ONEWEB-0500             
1 54118U 22138F   24080.61806437  .00000065  00000+0  13066-3 0  9993
2 54118  87.9105 107.9091 0001806  93.7745 266.3595 13.19726649 68860
ONEWEB-0501             
1 54119U 22138G   24080.57225570  .00000094  00000+0  20306-3 0  9999
2 54119  87.9104 107.9180 0001734  75.4124 284.7201 13.19726810 69709
ONEWEB-0502             
1 54120U 22138H   24080.63384887 -.00000083  00000+0 -23981-3 0  9997
2 54120  87.9102 107.8960 0001878  83.1160 277.0186 13.19723934 68866
ONEWEB-0503             
1 54121U 22138J   24080.62281709  .00000115  00000+0  25548-3 0  9991
2 54121  87.9101 107.9053 0002368  93.9276 266.2127 13.19725551 68853
ONEWEB-0504             
1 54122U 22138K   24081.51996088  .00000052  00000+0  96892-4 0  9995
2 54122  87.9103 107.7304 0002081  82.6957 277.4412 13.19726896 69851
ONEWEB-0505             
1 54123U 22138L   24080.60700043  .00000078  00000+0  16154-3 0  9999
2 54123  87.9102 107.9084 0001839  68.4668 291.6660 13.19726819 68845
ONEWEB-0506             
1 54124U 22138M   24081.49152447 -.00000223  00000+0 -58946-3 0  9996
2 54124  87.9101 107.7287 0001812  84.2679 275.8661 13.19725029 69823
ONEWEB-0507             
1 54125U 22138N   24080.60225180  .00000036  00000+0  58134-4 0  9994
2 54125  87.9111 107.9202 0001665  85.9118 274.2205 13.19727593 68886
ONEWEB-0508             
1 54126U 22138P   24081.50890874  .00000080  00000+0  16808-3 0  9993
2 54126  87.9107 107.7351 0001623  80.4536 279.6780 13.19722850 69859
ONEWEB-0509             
1 54127U 22138Q   24080.57384714  .00000085  00000+0  18091-3 0  9992
2 54127  87.9103 107.9146 0001892  89.7669 270.3681 13.19723822 69709
ONEWEB-0510             
1 54128U 22138R   24081.03391266  .00000114  00000+0  24850-3 0  9998
2 54128  87.9132  77.2424 0001456  88.0739 272.0561 13.20769665 72185
ONEWEB-0511             
1 54129U 22138S   24080.57069138  .00000054  00000+0  10237-3 0  9994
2 54129  87.9104 107.9174 0002330  87.7420 272.3979 13.19724474 69733
ONEWEB-0512             
1 54130U 22138T   24080.56276941  .00000089  00000+0  18912-3 0  9993
2 54130  87.9113 107.9281 0001877  78.2704 281.8639 13.19726974 69701
ONEWEB-0513             
1 54131U 22138U   24081.51917388  .00000046  00000+0  83311-4 0  9996
2 54131  87.9106 107.7338 0002113  74.3905 285.7460 13.19723154 69712
ONEWEB-0514             
1 54132U 22138V   24080.57857953  .00000071  00000+0  14538-3 0  9995
2 54132  87.9103 107.9203 0002004  91.9718 268.1644 13.19726599 69725
ONEWEB-0515             
1 54133U 22138W   24081.24855770  .00000054  00000+0  10131-3 0  9992
2 54133  87.9130  77.1801 0001805 122.8251 237.3056 13.20772321 72200
ONEWEB-0516             
1 54134U 22138X   24080.62911348  .00000105  00000+0  22899-3 0  9999
2 54134  87.9111 107.9154 0001803  91.9016 268.2324 13.19726733 68868
ONEWEB-0517             
1 54135U 22138Y   24081.51839266  .00000045  00000+0  81130-4 0  9994
2 54135  87.9102 107.7293 0001948  82.2777 277.8577 13.19723706 69851
ONEWEB-0518             
1 54136U 22138Z   24080.62754220  .00000031  00000+0  44445-4 0  9995
2 54136  87.9111 107.9150 0002080  88.8634 271.2737 13.19723217 68861
ONEWEB-0519             
1 54137U 22138AA  24080.57700871  .00000094  00000+0  20220-3 0  9996
2 54137  87.9103 107.9134 0002116  80.4197 279.7175 13.19724143 69732
ONEWEB-0520             
1 54138U 22138AB  24080.61175191  .00000020  00000+0  18696-4 0  9997
2 54138  87.9103 107.9095 0001711  77.8950 282.2374 13.19725626 68855
ONEWEB-0521             
1 54139U 22138AC  24080.56908925  .00000062  00000+0  12335-3 0  9990
2 54139  87.9104 107.9122 0002300  95.9844 264.1551 13.19726500 69697
ONEWEB-0522             
1 54140U 22138AD  24081.15508984  .00000032  00000+0  47105-4 0  9990
2 54140  87.9100 107.7971 0001785  92.3771 267.7566 13.19727194 69786
ONEWEB-0523             
1 54141U 22138AE  24081.23592677  .00000045  00000+0  79237-4 0  9997
2 54141  87.9133  77.2099 0002381 111.1626 248.9762 13.20772695 72205
ONEWEB-0524             
1 54142U 22138AF  24081.22486300 -.00000037  00000+0 -12245-3 0  9990
2 54142  87.9131  77.2160 0001324 128.0639 232.0614 13.20773216 72200
ONEWEB-0525             
1 54143U 22138AG  24080.56751416  .00000089  00000+0  19109-3 0  9991
2 54143  87.9106 107.9207 0001811  82.3240 277.8098 13.19726493 69726
ONEWEB-0526             
1 54144U 22138AH  24081.51048211  .00000084  00000+0  17798-3 0  9997
2 54144  87.9100 107.7292 0001760  90.9589 269.1746 13.19727152 69825
ONEWEB-0529             
1 54145U 22138AJ  24081.51363445  .00000070  00000+0  14337-3 0  9998
2 54145  87.9109 107.7370 0001666  81.8407 278.2915 13.19727400 69842
ONEWEB-0531             
1 54146U 22138AK  24081.51368784 -.00000303  00000+0 -77651-3 0  9999
2 54146  87.9134  77.1483 0002104 120.2992 239.8350 13.20771064 72242
ONEWEB-0535             
1 54147U 22138AL  24080.56119344  .00000071  00000+0  14607-3 0  9992
2 54147  87.9104 107.9178 0002202 103.4560 256.6819 13.19726321 69737
ONEWEB-0536             
1 54148U 22138AM  24081.04652073  .00000033  00000+0  48398-4 0  9991
2 54148  87.9131  77.2917 0002631 111.1477 248.9938 13.20773421 72170
GSLV R/B                
1 54149U 22138AN  24080.95834581  .00004616  00000+0  47273-3 0  9998
2 54149  87.3807  46.4519 0021884 228.1389 131.7972 14.90119477 76649
ONEWEB-0527             
1 54642U 22166A   24081.19597560 -.00000105  00000+0 -28590-3 0  9999
2 54642  87.9263  46.7970 0001746  84.1983 275.9350 13.21826727 63922
ONEWEB-0528             
1 54643U 22166B   24081.20228884  .00000036  00000+0  55253-4 0  9990
2 54643  87.9267  46.7795 0001775  77.7476 282.3857 13.21825301 63931
ONEWEB-0539             
1 54644U 22166C   24080.93576495  .00000084  00000+0  17246-3 0  9996
2 54644  87.9270  46.8336 0002108  80.6869 279.4503 13.21828239 63891
ONEWEB-0540             
1 54645U 22166D   24080.93026490  .00000054  00000+0  98481-4 0  9990
2 54645  87.9262  46.8581 0002121  77.7259 282.4112 13.21829083 63900
ONEWEB-0542             
1 54646U 22166E   24080.94522122 -.00000219  00000+0 -56272-3 0  9991
2 54646  87.9267  46.8316 0002435  82.7680 277.3731 13.21824698 63440
ONEWEB-0545             
1 54647U 22166F   24081.13921167 -.00000068  00000+0 -19715-3 0  9999
2 54647  87.9256  46.8227 0002350  74.7653 285.3741 13.21826204 63903
ONEWEB-0580             
1 54648U 22166G   24081.18809438 -.00000085  00000+0 -23841-3 0  9995
2 54648  87.9264  46.7751 0002522  82.6495 277.4925 13.21826715 63944
ONEWEB-0582             
1 54649U 22166H   24081.45775141  .00000093  00000+0  19341-3 0  9996
2 54649  87.9262  46.7617 0001997  72.9571 287.1782 13.21828025 63963
ONEWEB-0583             
1 54650U 22166J   24081.46878953  .00000122  00000+0  26429-3 0  9992
2 54650  87.9260  46.7612 0001523  82.1634 277.9673 13.21827704 63987
